[{"OBJECT_NAME":"ZIYUAN 3-02 (ZY 3-02)","OBJECT_ID":"2016-033A","EPOCH":"2026-03-09T22:29:55.337856","MEAN_MOTION":15.2155989,"ECCENTRICITY":0.00109987,"INCLINATION":97.3895,"RA_OF_ASC_NODE":146.5883,"ARG_OF_PERICENTER":297.9383,"MEAN_ANOMALY":62.0739,"EPHEMERIS_TYPE":0,"CLASSIFICATION_TYPE":"U","NORAD_CAT_ID":41556,"ELEMENT_SET_NO":999,"REV_AT_EPOCH":54289,"BSTAR":0.00035842327,"MEAN_MOTION_DOT":8.025e-5,"MEAN_MOTION_DDOT":0},{"OBJECT_NAME":"PEGASUS DEB","OBJECT_ID":"1994-029AER","EPOCH":"2026-02-26T06:39:21.581568","MEAN_MOTION":15.03561005,"ECCENTRICITY":0.01227406,"INCLINATION":81.7323,"RA_OF_ASC_NODE":356.2383,"ARG_OF_PERICENTER":77.7128,"MEAN_ANOMALY":283.7806,"EPHEMERIS_TYPE":0,"CLASSIFICATION_TYPE":"U","NORAD_CAT_ID":39306,"ELEMENT_SET_NO":999,"REV_AT_EPOCH":9218,"BSTAR":0.0046128236,"MEAN_MOTION_DOT":0.00074995,"MEAN_MOTION_DDOT":0}]
